STARLINK-6032
1 57371U 23099AV  26092.83335647  .00075295  00000+0  39839-2 0  9995
2 57371  42.9999 104.2655 0002343 279.6082  97.0672 15.14528927  5769
